,NORAD_CAT_ID,EPOCH,MEAN_MOTION,ECCENTRICITY,INCLINATION,RA_OF_ASC_NODE,ARG_OF_PERICENTER,MEAN_ANOMALY,SEMIMAJOR_AXIS,PERIOD,APOGEE,PERIGEE
81463,81259,2019-11-04 12:20:23,15.09583937,0.0009203,97.5349,42.5919,135.8058,354.7778,6915.607,95.39,543.836,531.107
81464,81259,2019-11-04 21:45:16,15.09583601,0.0009255000000000001,97.5348,42.9773,134.6545,326.4299,6915.608,95.39,543.873,531.073
81465,81259,2019-11-05 05:30:41,15.09583931,0.0009215,97.5348,43.2947,134.1004,282.3498,6915.607,95.39,543.845,531.099
81466,81259,2019-11-05 13:28:10,15.095839600000001,0.0009167,97.5346,43.621,132.8953,284.3833,6915.607,95.39,543.811,531.132
81467,81259,2019-11-05 21:39:24,15.095840300000003,0.0009222999999999999,97.5347,43.9563,131.8181,338.2308,6915.607,95.39,543.85,531.0930000000001
81468,81259,2019-11-06 05:29:41,15.09585175,0.0009199999999999999,97.5348,44.2769,131.1951,312.5775,6915.603,95.39,543.83,531.106
81469,81259,2019-11-06 13:19:45,15.09585654,0.0009212,97.5347,44.5976,130.2518,286.3847,6915.602,95.39,543.837,531.096
81470,81259,2019-11-06 21:31:14,15.095861,0.0009267999999999999,97.5346,44.9327,129.1484,341.1825,6915.6,95.39,543.875,531.056
81471,81259,2019-11-07 05:21:28,15.09587755,0.0009242000000000001,97.5348,45.2538,128.1516,315.7125,6915.595,95.39,543.852,531.069
81472,81259,2019-11-07 13:29:46,15.09588611,0.0009259,97.5349,45.586999999999996,127.1815,358.3689,6915.593000000001,95.39,543.861,531.054
81473,81259,2019-11-07 21:22:44,15.09589295,0.0009298,97.535,45.9099,126.0333,343.3441,6915.590999999999,95.39,543.886,531.025
82322,81878,2019-10-08 22:26:34,15.08420136,0.0007991000000000001,43.0185,182.6006,105.6117,357.4415,6919.164000000001,95.464,546.558,535.499
82323,81878,2019-10-09 01:45:38,15.08420114,0.0008006,43.0188,181.843,106.4439,28.171,6919.164000000001,95.464,546.568,535.489
82324,81878,2019-10-09 04:56:24,15.08420197,0.0008016,43.0188,181.1165,107.2516,27.5689,6919.1630000000005,95.464,546.575,535.482
82325,81878,2019-10-09 20:25:13,15.08420628,0.0008031000000000001,43.0184,177.5807,112.35,289.1259,6919.161999999999,95.464,546.5840000000001,535.47
82326,81878,2019-10-10 04:47:23,15.08420767,0.0008068,43.0184,175.6685,114.6568,22.7066,6919.161999999999,95.464,546.609,535.444
82327,81878,2019-10-10 18:58:20,15.08421238,0.0008089000000000001,43.0184,172.4284,119.2537,350.7687,6919.16,95.464,546.622,535.428
82328,81878,2019-10-11 04:38:50,15.08421838,0.0008103,43.0184,170.2177,121.6804,19.9939,6919.158,95.464,546.63,535.4169999999999
82329,81878,2019-10-11 13:53:15,15.08422338,0.0008122,43.0184,168.1065,124.3535,310.4798,6919.156999999999,95.463,546.6419999999999,535.4019999999999
82330,81878,2019-10-11 18:33:02,15.08422883,0.0008113999999999999,43.0183,167.0412,125.9267,285.1706,6919.155,95.463,546.634,535.406
82331,81878,2019-10-11 21:47:21,15.08423103,0.0008111,43.0184,166.3011,126.9347,297.8081,6919.154,95.463,546.632,535.4069999999999
82332,81878,2019-10-12 01:17:40,15.08423481,0.0008116,43.0184,165.5001,127.5715,11.2217,6919.153,95.463,546.634,535.403
82333,81878,2019-10-12 04:31:09,15.08423709,0.0008112999999999999,43.0183,164.7631,128.2371,21.0356,6919.153,95.463,546.631,535.404
82334,81878,2019-10-12 19:58:48,15.08424719,0.0008147,43.0184,161.2309,132.3938,279.1613,6919.15,95.463,546.6519999999999,535.377
82335,81878,2019-10-13 04:20:43,15.08425523,0.0008154999999999999,43.0185,159.3194,134.3267,12.1333,6919.147,95.463,546.655,535.37
82336,81878,2019-10-13 11:56:09,15.08426426,0.0008192999999999999,43.0183,157.5871,137.236,288.664,6919.144,95.463,546.678,535.34
82337,81878,2019-10-13 19:49:47,15.08426951,0.0008204000000000001,43.0183,155.7832,139.3245,274.7642,6919.143,95.463,546.684,535.331
82338,81878,2019-10-14 02:31:52,15.08427201,0.0008253000000000001,43.0183,154.2525,141.5146,350.5977,6919.142,95.463,546.717,535.297
82339,81878,2019-10-14 08:10:51,15.08427746,0.0008254,43.0182,152.9619,143.1427,188.7546,6919.14,95.463,546.716,535.294
82340,81878,2019-10-14 14:50:35,15.08428362,0.0008292,43.0182,151.4398,145.2478,255.8372,6919.138000000001,95.463,546.741,535.266
82341,81878,2019-10-14 18:12:50,15.08428221,0.0008314,43.0182,150.6695,146.3632,298.3022,6919.139,95.463,546.756,535.251
82342,81878,2019-10-15 02:22:51,15.08428067,0.0008362,43.0184,148.8043,149.0636,345.6153,6919.139,95.463,546.79,535.219
82343,81878,2019-10-15 11:37:56,15.08428416,0.0008397,43.0182,146.6906,151.8285,278.5368,6919.138000000001,95.463,546.813,535.193
82344,81878,2019-10-15 19:31:20,15.08428652,0.0008382,43.0182,144.8874,153.4432,264.2101,6919.138000000001,95.463,546.802,535.203
82345,81878,2019-10-16 02:13:50,15.08428517,0.0008424,43.018,143.355,155.2656,341.9636,6919.138000000001,95.463,546.832,535.174
82346,81878,2019-10-16 11:28:47,15.08428804,0.0008443,43.0181,141.2419,157.9687,274.4496,6919.137,95.463,546.844,535.16
82347,81878,2019-10-16 19:22:55,15.08428992,0.0008431000000000001,43.018,139.4362,159.7725,262.7091,6919.1359999999995,95.463,546.835,535.168
82348,81878,2019-10-17 00:36:33,15.08429058,0.0008466000000000001,43.0181,138.2426,161.1704,5.3728,6919.1359999999995,95.463,546.859,535.144
82349,81878,2019-10-17 11:19:44,15.08429016,0.0008523999999999999,43.0178,135.7934,164.0506,270.7838,6919.1359999999995,95.463,546.899,535.104
82350,81878,2019-10-17 19:43:03,15.08429435,0.0008537000000000001,43.0177,133.8769,166.4355,8.6301,6919.135,95.463,546.9069999999999,535.0930000000001
82351,81878,2019-10-18 00:26:39,15.08429656,0.0008550000000000001,43.0178,132.7968,167.4517,358.3776,6919.134,95.463,546.915,535.0840000000001
82352,81878,2019-10-18 11:10:36,15.08430126,0.0008613999999999999,43.0177,130.3464,170.4872,266.4983,6919.133000000001,95.463,546.9580000000001,535.038
82353,81878,2019-10-18 19:19:59,15.08430121,0.0008647,43.0179,128.4828,172.9684,311.6718,6919.133000000001,95.463,546.981,535.015
82354,81878,2019-10-19 00:07:16,15.08430331,0.0008642999999999999,43.018,127.3888,174.1567,315.1154,6919.132,95.463,546.9780000000001,535.0169999999999
82355,81878,2019-10-19 09:22:35,15.08430929,0.0008777999999999999,43.0182,125.2751,176.9151,248.9075,6919.130999999999,95.463,547.069,534.922
82356,81878,2019-10-19 14:18:29,15.08431214,0.0008786,43.0183,124.1483,178.238,284.7247,6919.13,95.463,547.0740000000001,534.9159999999999
82357,81878,2019-10-19 17:16:15,15.08431293,0.0008781,43.0183,123.4711,178.9454,235.1276,6919.129,95.463,547.07,534.919
82358,81878,2019-10-19 22:26:23,15.08431336,0.0008791000000000001,43.0183,122.2903,180.4223,324.5415,6919.129,95.463,547.077,534.9119999999999
82359,81878,2019-10-19 23:58:17,15.08431369,0.0008792,43.0184,121.9401,180.7678,311.17900000000003,6919.129,95.463,547.077,534.911
82360,81878,2019-10-20 10:51:36,15.08431971,0.0008814,43.0181,119.4533,183.6794,254.8431,6919.1269999999995,95.463,547.091,534.894
82361,81878,2019-10-20 18:46:55,15.084319800000001,0.0008801999999999999,43.018,117.6432,185.6255,247.4043,6919.1269999999995,95.463,547.0830000000001,534.9019999999999
82362,81878,2019-10-20 22:07:27,15.08431887,0.0008818,43.018,116.8794,186.554,283.5718,6919.128000000001,95.463,547.094,534.891
82363,81878,2019-10-20 23:49:16,15.08431909,0.0008818999999999999,43.018,116.4916,187.0503,307.4903,6919.128000000001,95.463,547.095,534.891
82364,81878,2019-10-21 10:43:54,15.08432212,0.0008842,43.0178,113.9994,190.0597,255.9715,6919.1269999999995,95.463,547.11,534.874
82365,81878,2019-10-21 18:50:38,15.08431775,0.0008901,43.0175,112.1463,192.5506,291.1012,6919.128000000001,95.463,547.1519999999999,534.8340000000001
82366,81878,2019-10-21 22:01:17,15.08431751,0.000892,43.0174,111.4201,193.3827,290.1036,6919.128000000001,95.463,547.165,534.821
82367,81878,2019-10-22 03:40:49,15.08431821,0.0008939,43.0173,110.1273,194.8313,130.4782,6919.128000000001,95.463,547.178,534.808
82368,81878,2019-10-22 18:29:44,15.08432052,0.0009052999999999999,43.016999999999996,106.7437,198.9901,242.3747,6919.1269999999995,95.463,547.256,534.7280000000001
82369,81878,2019-10-23 03:33:05,15.08432251,0.0009152999999999999,43.0171,104.6757,201.0867,131.649,6919.126,95.463,547.325,534.658
82370,81878,2019-10-23 08:46:06,15.08432337,0.0009161,43.0171,103.4833,202.4609,232.0991,6919.126,95.463,547.33,534.653
82371,81878,2019-10-23 13:25:57,15.08432758,0.0009221,43.0169,102.4181,203.8622,207.2085,6919.125,95.463,547.37,534.61
82372,81878,2019-10-23 20:11:18,15.08432967,0.0009257,43.0171,100.8756,205.6357,295.8354,6919.124,95.463,547.394,534.5840000000001
82373,81878,2019-10-24 13:33:10,15.08433799,0.0009432,43.016999999999996,96.9087,210.3907,264.6042,6919.121999999999,95.463,547.513,534.461
82374,81878,2019-10-24 21:42:30,15.08433883,0.0009472000000000001,43.0171,95.0456,212.4808,309.9664,6919.121999999999,95.463,547.54,534.433
82375,81878,2019-10-25 18:14:15,15.08434959,0.000962,43.0173,90.3556,218.1046,274.6845,6919.118,95.463,547.639,534.327
82376,81878,2019-10-26 08:19:26,15.08435563,0.0009718999999999999,43.0173,87.1379,221.6972,222.0386,6919.116,95.463,547.706,534.257
82377,81878,2019-10-26 11:35:48,15.08435668,0.0009755000000000001,43.0173,86.3902,222.5297,242.5959,6919.116,95.463,547.731,534.231
82378,81878,2019-10-26 19:32:45,15.08435382,0.0009817,43.0173,84.5739,224.5024,241.31099999999998,6919.116999999999,95.463,547.774,534.189
82379,81878,2019-10-27 02:57:15,15.08435805,0.0009892999999999998,43.0176,82.8822,226.0591,117.9181,6919.116,95.463,547.826,534.136
82380,81878,2019-10-27 11:26:42,15.08436186,0.0009958,43.0175,80.9424,228.3395,239.0764,6919.1140000000005,95.463,547.87,534.089
82381,81878,2019-10-27 19:25:40,15.08435868,0.001005,43.0176,79.1188,230.2251,245.5187,6919.115,95.463,547.934,534.0269999999999
82382,81878,2019-10-28 02:47:09,15.08436157,0.0010095,43.0176,77.4381,232.0149,110.4658,6919.115,95.463,547.964,533.995
82383,81878,2019-10-28 12:47:42,15.084362200000001,0.0010176999999999999,43.0175,75.15100000000001,234.6552,215.1751,6919.1140000000005,95.463,548.021,533.938
